OTTER                   
1 62623U 25009Q   26068.72300813  .00012198  00000+0  45151-3 0  9990
2 62623  97.4065 151.3812 0003572 310.7710  49.3219 15.27809545 63721
STARLINK-35720          
1 67052U 25294Y   26068.90742772  .00032630  00000+0  11898-2 0  9994
2 67052  43.0044  36.7413 0001453 247.9549 112.1149 15.27587029 14835
